EYESAT A (AO-27)        
1 22825U 93061C   26186.18004384  .00000151  00000+0  74236-4 0  9991
2 22825  98.6873 253.5864 0009241  53.0213 307.1814 14.30947411709571
ITAMSAT (IO-26)         
1 22826U 93061D   26186.15408635  .00000155  00000+0  75456-4 0  9995
2 22826  98.6820 253.4798 0009522  37.5027 322.6818 14.31374787709882
RADIO ROSTO (RS15)      
1 23439U 94085A   26186.29724470 -.00000031  00000+0  32444-3 0  9999
2 23439  64.8175 273.9281 0156554   0.5292 359.5771 11.27583527297949
JAS-2 (FO-29)           
1 24278U 96046B   26186.49872094 -.00000023  00000+0  10395-4 0  9991
2 24278  98.5225  32.8610 0350710  49.0522 314.0418 13.53274998475642
FORTE                   
1 24920U 97047A   26185.67715804  .00000266  00000+0  13019-3 0  9994
2 24920  69.9545 334.5145 0024567 256.2124 103.6264 14.27952788501188
TECHSAT 1B (GO-32)      
1 25397U 98043D   26186.46803397  .00000082  00000+0  55820-4 0  9996
2 25397  99.0076 179.6883 0001882 130.3325 229.8018 14.24432096453936
ISS (ZARYA)             
1 25544U 98067A   26186.44376576  .00008907  00000+0  17013-3 0  9993
2 25544  51.6303 209.7275 0006727 258.7638 101.2595 15.48905966574588
IMAGE                   
1 26113U 00017A   26181.91168621 -.00000033  00000+0  00000+0 0  9998
2 26113  94.2398 315.5527 7422471 286.2504   9.4555  1.68666270161730
CLUSTER II-FM7 (SAMBA)  
1 26410U 00041A   26188.21797159  .00007566  00000+0  00000+0 0  9996
2 26410 149.8716  54.4790 9079263 271.8893 359.5006  0.44837774 20390
CLUSTER II-FM8 (TANGO)  
1 26464U 00045B   26184.19681524  .00012165  00000+0  00000+0 0  9991
2 26464 150.1065  54.7656 9078555 272.0035   2.3073  0.44420887 20388
ODIN                    
1 26702U 01007A   26186.08966523  .00444533  00000+0  19065-2 0  9992
2 26702  97.3754 228.2704 0005229 135.2635 224.9058 15.83958831392221
OMNI-M1                 
1 26857U 01026A   26183.00645506  .00000007  00000+0  00000+0 0  9998
2 26857  44.8270 241.8483 0013799  56.1769 304.0224  3.92402003206150
PCSAT (NO-44)           
1 26931U 01043C   26186.45876824  .00000160  00000+0  90679-4 0  9997
2 26931  67.0487 197.0128 0006001 265.8664  94.1752 14.31962526293064
PROBA-1                 
1 26958U 01049B   26186.58889267  .00004329  00000+0  27902-3 0  9990
2 26958  97.9593 195.7646 0056219  61.4068 299.2799 15.07581456346394
SAUDISAT 1C (SO-50)     
1 27607U 02058C   26186.29437210  .00001271  00000+0  16659-3 0  9998
2 27607  64.5520  72.9616 0074804 259.0885 100.1798 14.83086679267145
CORIOLIS                
1 27640U 03001A   26186.44760548  .00000128  00000+0  80692-4 0  9993
2 27640  98.7128 193.0537 0014466 155.9156 204.2700 14.19950027216818
CUTE-1 (CO-55)          
1 27844U 03031E   26186.02060450  .00000393  00000+0  18869-3 0  9991
2 27844  98.6737 194.3551 0010529 129.0136 231.1982 14.24347366194217
CUBESAT XI-IV (CO-57)   
1 27848U 03031J   26185.94773638  .00000336  00000+0  16664-3 0  9992
2 27848  98.6769 193.9817 0010102 146.4963 213.6856 14.23630898193908
MOZHAETS 4 (RS22)       
1 27939U 03042A   26186.62008200  .00001158  00000+0  18648-3 0  9994
2 27939  98.3472  11.4996 0010492 204.5697 243.9808 14.73501686218268
